{
  "type": "FeatureCollection",
  "features": [
    {
      "type": "Feature",
      "properties": {
        "norad_id": 33913,
        "name": "COSMOS 2251 DEB",
        "group": "cosmos-2251-debris",
        "lat": 0.7868012352355851,
        "lon": 167.49398701838172,
        "alt_km": 734.5273013228543,
        "timestamp": "2025-12-21T11:31:43.252386+00:00",
        "meta_object_name": "COSMOS 2251 DEB",
        "meta_object_id": "1993-036DS",
        "meta_epoch": "2025-12-20T14:16:18.139296",
        "meta_mean_motion": 14.48514433,
        "meta_eccentricity": 0.0048159,
        "meta_inclination": 74.032,
        "meta_ra_of_asc_node": 168.9277,
        "meta_arg_of_pericenter": 270.0114,
        "meta_mean_anomaly": 153.5906,
        "meta_ephemeris_type": 0,
        "meta_classification_type": "U",
        "meta_norad_cat_id": 33913,
        "meta_element_set_no": 999,
        "meta_rev_at_epoch": 88571,
        "meta_bstar": 0.00037336,
        "meta_mean_motion_dot": 1.394e-05,
        "meta_mean_motion_ddot": 0,
        "tle_line1": "1 33913U 93036DS  25354.59465439  .00001394  00000+0  37336-3 0  9995",
        "tle_line2": "2 33913  74.0320 168.9277 0048159 270.0114 153.5906 14.48514433885714"
      },
      "geometry": {
        "type": "Point",
        "coordinates": [
          167.49398701838172,
          0.7868012352355851
        ]
      }
    },
    {
      "type": "Feature",
      "properties": {
        "norad_id": 33914,
        "name": "COSMOS 2251 DEB",
        "group": "cosmos-2251-debris",
        "lat": 71.22744271857039,
        "lon": 57.733776433540385,
        "alt_km": 778.2457017132556,
        "timestamp": "2025-12-21T11:31:43.252397+00:00",
        "meta_object_name": "COSMOS 2251 DEB",
        "meta_object_id": "1993-036DT",
        "meta_epoch": "2025-12-21T02:43:41.419776",
        "meta_mean_motion": 13.7198924,
        "meta_eccentricity": 0.0300832,
        "meta_inclination": 74.0911,
        "meta_ra_of_asc_node": 1.2943,
        "meta_arg_of_pericenter": 102.3031,
        "meta_mean_anomaly": 328.4384,
        "meta_ephemeris_type": 0,
        "meta_classification_type": "U",
        "meta_norad_cat_id": 33914,
        "meta_element_set_no": 999,
        "meta_rev_at_epoch": 84196,
        "meta_bstar": 0.00017241,
        "meta_mean_motion_dot": 1.97e-06,
        "meta_mean_motion_ddot": 0,
        "tle_line1": "1 33914U 93036DT  25355.11367384  .00000197  00000+0  17241-3 0  9998",
        "tle_line2": "2 33914  74.0911   1.2943 0300832 102.3031 328.4384 13.71989240841963"
      },
      "geometry": {
        "type": "Point",
        "coordinates": [
          57.733776433540385,
          71.22744271857039
        ]
      }
    },
    {
      "type": "Feature",
      "properties": {
        "norad_id": 33915,
        "name": "COSMOS 2251 DEB",
        "group": "cosmos-2251-debris",
        "lat": 24.32356623365963,
        "lon": 25.519236475251184,
        "alt_km": 763.6789331068994,
        "timestamp": "2025-12-21T11:31:43.252407+00:00",
        "meta_object_name": "COSMOS 2251 DEB",
        "meta_object_id": "1993-036DU",
        "meta_epoch": "2025-12-21T01:30:48.066912",
        "meta_mean_motion": 14.35099706,
        "meta_eccentricity": 0.0104094,
        "meta_inclination": 74.0432,
        "meta_ra_of_asc_node": 18.853,
        "meta_arg_of_pericenter": 109.1591,
        "meta_mean_anomaly": 282.4072,
        "meta_ephemeris_type": 0,
        "meta_classification_type": "U",
        "meta_norad_cat_id": 33915,
        "meta_element_set_no": 999,
        "meta_rev_at_epoch": 87877,
        "meta_bstar": 0.00023846,
        "meta_mean_motion_dot": 6.97e-06,
        "meta_mean_motion_ddot": 0,
        "tle_line1": "1 33915U 93036DU  25355.06305633  .00000697  00000+0  23846-3 0  9995",
        "tle_line2": "2 33915  74.0432  18.8530 0104094 109.1591 282.4072 14.35099706878778"
      },
      "geometry": {
        "type": "Point",
        "coordinates": [
          25.519236475251184,
          24.32356623365963
        ]
      }
    },
    {
      "type": "Feature",
      "properties": {
        "norad_id": 33916,
        "name": "COSMOS 2251 DEB",
        "group": "cosmos-2251-debris",
        "lat": -59.722343368853664,
        "lon": -124.44827663122292,
        "alt_km": 844.6418452940097,
        "timestamp": "2025-12-21T11:31:43.252417+00:00",
        "meta_object_name": "COSMOS 2251 DEB",
        "meta_object_id": "1993-036DV",
        "meta_epoch": "2025-12-21T01:43:42.896928",
        "meta_mean_motion": 13.68622146,
        "meta_eccentricity": 0.0324964,
        "meta_inclination": 74.0521,
        "meta_ra_of_asc_node": 26.8977,
        "meta_arg_of_pericenter": 197.2652,
        "meta_mean_anomaly": 192.7756,
        "meta_ephemeris_type": 0,
        "meta_classification_type": "U",
        "meta_norad_cat_id": 33916,
        "meta_element_set_no": 999,
        "meta_rev_at_epoch": 84005,
        "meta_bstar": 0.00024477,
        "meta_mean_motion_dot": 2.82e-06,
        "meta_mean_motion_ddot": 0,
        "tle_line1": "1 33916U 93036DV  25355.07202427  .00000282  00000+0  24477-3 0  9995",
        "tle_line2": "2 33916  74.0521  26.8977 0324964 197.2652 192.7756 13.68622146840055"
      },
      "geometry": {
        "type": "Point",
        "coordinates": [
          -124.44827663122292,
          -59.722343368853664
        ]
      }
    },
    {
      "type": "Feature",
      "properties": {
        "norad_id": 33917,
        "name": "COSMOS 2251 DEB",
        "group": "cosmos-2251-debris",
        "lat": -16.170945447730528,
        "lon": 103.32327107333026,
        "alt_km": 1178.583856790765,
        "timestamp": "2025-12-21T11:31:43.252427+00:00",
        "meta_object_name": "COSMOS 2251 DEB",
        "meta_object_id": "1993-036DW",
        "meta_epoch": "2025-12-21T01:05:42.516672",
        "meta_mean_motion": 13.69375159,
        "meta_eccentricity": 0.0331264,
        "meta_inclination": 74.1072,
        "meta_ra_of_asc_node": 108.7746,
        "meta_arg_of_pericenter": 207.9279,
        "meta_mean_anomaly": 150.3716,
        "meta_ephemeris_type": 0,
        "meta_classification_type": "U",
        "meta_norad_cat_id": 33917,
        "meta_element_set_no": 999,
        "meta_rev_at_epoch": 83847,
        "meta_bstar": 0.00060207,
        "meta_mean_motion_dot": 7.47e-06,
        "meta_mean_motion_ddot": 0,
        "tle_line1": "1 33917U 93036DW  25355.04563098  .00000747  00000+0  60207-3 0  9994",
        "tle_line2": "2 33917  74.1072 108.7746 0331264 207.9279 150.3716 13.69375159838476"
      },
      "geometry": {
        "type": "Point",
        "coordinates": [
          103.32327107333026,
          -16.170945447730528
        ]
      }
    },
    {
      "type": "Feature",
      "properties": {
        "norad_id": 33920,
        "name": "COSMOS 2251 DEB",
        "group": "cosmos-2251-debris",
        "lat": -19.14166557915904,
        "lon": -83.87546107560989,
        "alt_km": 686.9252195011468,
        "timestamp": "2025-12-21T11:31:43.252438+00:00",
        "meta_object_name": "COSMOS 2251 DEB",
        "meta_object_id": "1993-036DZ",
        "meta_epoch": "2025-12-20T20:48:09.626976",
        "meta_mean_motion": 14.58390776,
        "meta_eccentricity": 0.0037924,
        "meta_inclination": 74.062,
        "meta_ra_of_asc_node": 282.9824,
        "meta_arg_of_pericenter": 288.4211,
        "meta_mean_anomaly": 71.2832,
        "meta_ephemeris_type": 0,
        "meta_classification_type": "U",
        "meta_norad_cat_id": 33920,
        "meta_element_set_no": 999,
        "meta_rev_at_epoch": 88233,
        "meta_bstar": 0.0010683,
        "meta_mean_motion_dot": 4.973e-05,
        "meta_mean_motion_ddot": 0,
        "tle_line1": "1 33920U 93036DZ  25354.86677809  .00004973  00000+0  10683-2 0  9990",
        "tle_line2": "2 33920  74.0620 282.9824 0037924 288.4211  71.2832 14.58390776882331"
      },
      "geometry": {
        "type": "Point",
        "coordinates": [
          -83.87546107560989,
          -19.14166557915904
        ]
      }
    },
    {
      "type": "Feature",
      "properties": {
        "norad_id": 33922,
        "name": "COSMOS 2251 DEB",
        "group": "cosmos-2251-debris",
        "lat": -23.378212442219873,
        "lon": -41.52219967117888,
        "alt_km": 719.0535334833203,
        "timestamp": "2025-12-21T11:31:43.252448+00:00",
        "meta_object_name": "COSMOS 2251 DEB",
        "meta_object_id": "1993-036EB",
        "meta_epoch": "2025-12-21T03:07:17.391360",
        "meta_mean_motion": 14.49534538,
        "meta_eccentricity": 0.0023158,
        "meta_inclination": 74.0468,
        "meta_ra_of_asc_node": 132.0313,
        "meta_arg_of_pericenter": 241.627,
        "meta_mean_anomaly": 295.5653,
        "meta_ephemeris_type": 0,
        "meta_classification_type": "U",
        "meta_norad_cat_id": 33922,
        "meta_element_set_no": 999,
        "meta_rev_at_epoch": 88699,
        "meta_bstar": 0.00033844,
        "meta_mean_motion_dot": 1.275e-05,
        "meta_mean_motion_ddot": 0,
        "tle_line1": "1 33922U 93036EB  25355.13006240  .00001275  00000+0  33844-3 0  9995",
        "tle_line2": "2 33922  74.0468 132.0313 0023158 241.6270 295.5653 14.49534538886995"
      },
      "geometry": {
        "type": "Point",
        "coordinates": [
          -41.52219967117888,
          -23.378212442219873
        ]
      }
    }
  ]
}